STARLINK-31707          
1 59736U 24090G   26067.39950523  .00000319  00000+0  21138-4 0  9993
2 59736  43.0032 190.7090 0001848 193.7061 166.3741 15.27582757103245
HERMES-4                
1 63833U 25052BP  26068.92081747  .00021364  00000+0  81237-3 0  9996
2 63833  97.4000 323.4610 0002652 154.9526 205.1842 15.26796135 54782
